{
  "type": "FeatureCollection",
  "features": [
    {
      "type": "Feature",
      "properties": {
        "norad_id": 33886,
        "name": "IRIDIUM 33 DEB",
        "group": "iridium-33-debris",
        "lat": -12.915448027213547,
        "lon": -110.10291397975857,
        "alt_km": 772.6459072683901,
        "timestamp": "2025-12-08T08:59:01.151318+00:00",
        "meta_object_name": "IRIDIUM 33 DEB",
        "meta_object_id": "1997-051BF",
        "meta_epoch": "2025-12-07T19:15:20.467008",
        "meta_mean_motion": 14.36043091,
        "meta_eccentricity": 0.00120786,
        "meta_inclination": 86.3831,
        "meta_ra_of_asc_node": 69.3067,
        "meta_arg_of_pericenter": 260.6757,
        "meta_mean_anomaly": 217.0505,
        "meta_ephemeris_type": 0,
        "meta_classification_type": "U",
        "meta_norad_cat_id": 33886,
        "meta_element_set_no": 999,
        "meta_rev_at_epoch": 87981,
        "meta_bstar": 0.0003813438,
        "meta_mean_motion_dot": 1.128e-05,
        "meta_mean_motion_ddot": 0,
        "tle_line1": "1 33886U 97051BF  25341.80232022  .00001128  00000+0  38134-3 0  9997",
        "tle_line2": "2 33886  86.3831  69.3067 0012078 260.6757 217.0505 14.36043091879815"
      },
      "geometry": {
        "type": "Point",
        "coordinates": [
          -110.10291397975857,
          -12.915448027213547
        ]
      }
    },
    {
      "type": "Feature",
      "properties": {
        "norad_id": 33887,
        "name": "IRIDIUM 33 DEB",
        "group": "iridium-33-debris",
        "lat": 68.8492960202602,
        "lon": 175.65801171614524,
        "alt_km": 763.2709757710863,
        "timestamp": "2025-12-08T08:59:01.151329+00:00",
        "meta_object_name": "IRIDIUM 33 DEB",
        "meta_object_id": "1997-051BG",
        "meta_epoch": "2025-12-07T19:57:20.850048",
        "meta_mean_motion": 14.3721476,
        "meta_eccentricity": 0.00041294,
        "meta_inclination": 86.3048,
        "meta_ra_of_asc_node": 5.5075,
        "meta_arg_of_pericenter": 249.5792,
        "meta_mean_anomaly": 294.4563,
        "meta_ephemeris_type": 0,
        "meta_classification_type": "U",
        "meta_norad_cat_id": 33887,
        "meta_element_set_no": 999,
        "meta_rev_at_epoch": 88094,
        "meta_bstar": 0.00026272888,
        "meta_mean_motion_dot": 8.01e-06,
        "meta_mean_motion_ddot": 0,
        "tle_line1": "1 33887U 97051BG  25341.83149132  .00000801  00000+0  26273-3 0  9998",
        "tle_line2": "2 33887  86.3048   5.5075 0004129 249.5792 294.4563 14.37214760880943"
      },
      "geometry": {
        "type": "Point",
        "coordinates": [
          175.65801171614524,
          68.8492960202602
        ]
      }
    },
    {
      "type": "Feature",
      "properties": {
        "norad_id": 33953,
        "name": "IRIDIUM 33 DEB",
        "group": "iridium-33-debris",
        "lat": 42.3700377442147,
        "lon": 58.98060078246625,
        "alt_km": 701.4015142473299,
        "timestamp": "2025-12-08T08:59:01.151339+00:00",
        "meta_object_name": "IRIDIUM 33 DEB",
        "meta_object_id": "1997-051BN",
        "meta_epoch": "2025-12-07T23:41:46.639968",
        "meta_mean_motion": 14.55250964,
        "meta_eccentricity": 0.00185069,
        "meta_inclination": 86.3842,
        "meta_ra_of_asc_node": 55.8419,
        "meta_arg_of_pericenter": 117.3038,
        "meta_mean_anomaly": 59.4423,
        "meta_ephemeris_type": 0,
        "meta_classification_type": "U",
        "meta_norad_cat_id": 33953,
        "meta_element_set_no": 999,
        "meta_rev_at_epoch": 88234,
        "meta_bstar": 0.0016064957,
        "meta_mean_motion_dot": 6.991e-05,
        "meta_mean_motion_ddot": 0,
        "tle_line1": "1 33953U 97051BN  25341.98734537  .00006991  00000+0  16065-2 0  9990",
        "tle_line2": "2 33953  86.3842  55.8419 0018506 117.3038  59.4423 14.55250964882344"
      },
      "geometry": {
        "type": "Point",
        "coordinates": [
          58.98060078246625,
          42.3700377442147
        ]
      }
    },
    {
      "type": "Feature",
      "properties": {
        "norad_id": 33960,
        "name": "IRIDIUM 33 DEB",
        "group": "iridium-33-debris",
        "lat": 78.6279421355485,
        "lon": 92.55999449736396,
        "alt_km": 602.6262630506853,
        "timestamp": "2025-12-08T08:59:01.151350+00:00",
        "meta_object_name": "IRIDIUM 33 DEB",
        "meta_object_id": "1997-051BV",
        "meta_epoch": "2025-12-07T21:27:16.987104",
        "meta_mean_motion": 14.84797874,
        "meta_eccentricity": 0.00072802,
        "meta_inclination": 86.2539,
        "meta_ra_of_asc_node": 291.7979,
        "meta_arg_of_pericenter": 69.0965,
        "meta_mean_anomaly": 345.5292,
        "meta_ephemeris_type": 0,
        "meta_classification_type": "U",
        "meta_norad_cat_id": 33960,
        "meta_element_set_no": 999,
        "meta_rev_at_epoch": 88795,
        "meta_bstar": 0.0040221347,
        "meta_mean_motion_dot": 0.00034297,
        "meta_mean_motion_ddot": 0,
        "tle_line1": "1 33960U 97051BV  25341.89394661  .00034297  00000+0  40221-2 0  9999",
        "tle_line2": "2 33960  86.2539 291.7979 0007280  69.0965 345.5292 14.84797874887958"
      },
      "geometry": {
        "type": "Point",
        "coordinates": [
          92.55999449736396,
          78.6279421355485
        ]
      }
    },
    {
      "type": "Feature",
      "properties": {
        "norad_id": 33966,
        "name": "IRIDIUM 33 DEB",
        "group": "iridium-33-debris",
        "lat": -77.94529546240939,
        "lon": -114.91678676717301,
        "alt_km": 731.711854963316,
        "timestamp": "2025-12-08T08:59:01.151360+00:00",
        "meta_object_name": "IRIDIUM 33 DEB",
        "meta_object_id": "1997-051CB",
        "meta_epoch": "2025-12-07T22:39:31.260384",
        "meta_mean_motion": 14.4956335,
        "meta_eccentricity": 0.00068631,
        "meta_inclination": 86.3925,
        "meta_ra_of_asc_node": 48.0853,
        "meta_arg_of_pericenter": 204.7309,
        "meta_mean_anomaly": 330.1013,
        "meta_ephemeris_type": 0,
        "meta_classification_type": "U",
        "meta_norad_cat_id": 33966,
        "meta_element_set_no": 999,
        "meta_rev_at_epoch": 88372,
        "meta_bstar": 0.00079663451,
        "meta_mean_motion_dot": 3.076e-05,
        "meta_mean_motion_ddot": 0,
        "tle_line1": "1 33966U 97051CB  25341.94411181  .00003076  00000+0  79663-3 0  9992",
        "tle_line2": "2 33966  86.3925  48.0853 0006863 204.7309 330.1013 14.49563350883727"
      },
      "geometry": {
        "type": "Point",
        "coordinates": [
          -114.91678676717301,
          -77.94529546240939
        ]
      }
    },
    {
      "type": "Feature",
      "properties": {
        "norad_id": 34071,
        "name": "IRIDIUM 33 DEB",
        "group": "iridium-33-debris",
        "lat": -33.25198735243611,
        "lon": 17.324201605804916,
        "alt_km": 739.8645413083086,
        "timestamp": "2025-12-08T08:59:01.151370+00:00",
        "meta_object_name": "IRIDIUM 33 DEB",
        "meta_object_id": "1997-051CE",
        "meta_epoch": "2025-12-07T19:52:56.224128",
        "meta_mean_motion": 14.4943314,
        "meta_eccentricity": 0.00097588,
        "meta_inclination": 86.3456,
        "meta_ra_of_asc_node": 19.963,
        "meta_arg_of_pericenter": 120.799,
        "meta_mean_anomaly": 239.4176,
        "meta_ephemeris_type": 0,
        "meta_classification_type": "U",
        "meta_norad_cat_id": 34071,
        "meta_element_set_no": 999,
        "meta_rev_at_epoch": 88263,
        "meta_bstar": 0.0010378873,
        "meta_mean_motion_dot": 3.992e-05,
        "meta_mean_motion_ddot": 0,
        "tle_line1": "1 34071U 97051CE  25341.82842852  .00003992  00000+0  10379-2 0  9995",
        "tle_line2": "2 34071  86.3456  19.9630 0009758 120.7990 239.4176 14.49433140882636"
      },
      "geometry": {
        "type": "Point",
        "coordinates": [
          17.324201605804916,
          -33.25198735243611
        ]
      }
    },
    {
      "type": "Feature",
      "properties": {
        "norad_id": 34077,
        "name": "IRIDIUM 33 DEB",
        "group": "iridium-33-debris",
        "lat": -71.27733421268799,
        "lon": 42.68332686133506,
        "alt_km": 689.5607639856125,
        "timestamp": "2025-12-08T08:59:01.151381+00:00",
        "meta_object_name": "IRIDIUM 33 DEB",
        "meta_object_id": "1997-051CL",
        "meta_epoch": "2025-12-07T17:30:10.612800",
        "meta_mean_motion": 14.64727132,
        "meta_eccentricity": 0.0010688,
        "meta_inclination": 86.3861,
        "meta_ra_of_asc_node": 53.7144,
        "meta_arg_of_pericenter": 55.2764,
        "meta_mean_anomaly": 74.1859,
        "meta_ephemeris_type": 0,
        "meta_classification_type": "U",
        "meta_norad_cat_id": 34077,
        "meta_element_set_no": 999,
        "meta_rev_at_epoch": 88259,
        "meta_bstar": 0.0027822703,
        "meta_mean_motion_dot": 0.00014865,
        "meta_mean_motion_ddot": 0,
        "tle_line1": "1 34077U 97051CL  25341.72928950  .00014865  00000+0  27823-2 0  9997",
        "tle_line2": "2 34077  86.3861  53.7144 0010688  55.2764  74.1859 14.64727132882594"
      },
      "geometry": {
        "type": "Point",
        "coordinates": [
          42.68332686133506,
          -71.27733421268799
        ]
      }
    }
  ]
}